{
    "links": {
        "self": "http://www.neowsapp.com/rest/v1/neo/3629113?api_key=iIulBulltgU6a56xZRHN4H3l9WmuAYTsLGpBGhQ2"
    },
    "id": "3629113",
    "neo_reference_id": "3629113",
    "name": "(2013 EP)",
    "designation": "2013 EP",
    "nasa_jpl_url": "http://ssd.jpl.nasa.gov/sbdb.cgi?sstr=3629113",
    "absolute_magnitude_h": 25.0,
    "estimated_diameter": {
        "kilometers": {
            "estimated_diameter_min": 0.02658,
            "estimated_diameter_max": 0.0594346868
        },
        "meters": {
            "estimated_diameter_min": 26.58,
            "estimated_diameter_max": 59.4346868419
        },
        "miles": {
            "estimated_diameter_min": 0.0165160412,
            "estimated_diameter_max": 0.0369309908
        },
        "feet": {
            "estimated_diameter_min": 87.2047272,
            "estimated_diameter_max": 194.9956979785
        }
    },
    "is_potentially_hazardous_asteroid": false,
    "close_approach_data": [
        {
            "close_approach_date": "2013-03-02",
            "close_approach_date_full": "2013-Mar-02 09:25",
            "epoch_date_close_approach": 1362216300000,
            "relative_velocity": {
                "kilometers_per_second": "8.7119206754",
                "kilometers_per_hour": "31362.9144313477",
                "miles_per_hour": "19487.6953587449"
            },
            "miss_distance": {
                "astronomical": "0.08539476",
                "lunar": "33.21856164",
                "kilometers": "12774874.2051612",
                "miles": "7937938.74397656"
            },
            "orbiting_body": "Earth"
        }
    ],
    "orbital_data": {
        "orbit_id": "5",
        "orbit_determination_date": "2017-04-06 08:46:37",
        "first_observation_date": "2013-03-02",
        "last_observation_date": "2013-03-05",
        "data_arc_in_days": 3,
        "observations_used": 30,
        "orbit_uncertainty": "8",
        "minimum_orbit_intersection": ".0853152",
        "jupiter_tisserand_invariant": "4.763",
        "epoch_osculation": "2456354.5",
        "eccentricity": ".2145795905669415",
        "semi_major_axis": "1.369512911088963",
        "inclination": "15.97187183437675",
        "ascending_node_longitude": "341.8714853872597",
        "orbital_period": "585.393132529979",
        "perihelion_distance": "1.075643391351353",
        "perihelion_argument": "174.4966254586879",
        "aphelion_distance": "1.663382430826573",
        "perihelion_time": "2456348.623526051985",
        "mean_anomaly": "3.613863066931452",
        "mean_motion": ".6149713414712186",
        "equinox": "J2000",
        "orbit_class": {
            "orbit_class_type": "AMO",
            "orbit_class_description": "Near-Earth asteroid orbits similar to that of 1221 Amor",
            "orbit_class_range": "1.017 AU < q (perihelion) < 1.3 AU"
        }
    },
    "is_sentry_object": false
}